{
  "links" : {
    "next" : "https://api.nasa.gov/neo/rest/v1/feed?start_date=2009-10-23&end_date=2009-10-23&detailed=true&api_key=t0TVs3DtDT2H8Oy2Zy8m2eVrNsAVKAexjcZXUckd",
    "prev" : "https://api.nasa.gov/neo/rest/v1/feed?start_date=2009-10-21&end_date=2009-10-21&detailed=true&api_key=t0TVs3DtDT2H8Oy2Zy8m2eVrNsAVKAexjcZXUckd",
    "self" : "https://api.nasa.gov/neo/rest/v1/feed?start_date=2009-10-22&end_date=2009-10-22&detailed=true&api_key=t0TVs3DtDT2H8Oy2Zy8m2eVrNsAVKAexjcZXUckd"
  },
  "element_count" : 9,
  "near_earth_objects" : {
    "2009-10-22" : [ {
      "links" : {
        "self" : "https://api.nasa.gov/neo/rest/v1/neo/2413563?api_key=t0TVs3DtDT2H8Oy2Zy8m2eVrNsAVKAexjcZXUckd"
      },
      "neo_reference_id" : "2413563",
      "name" : "413563 (2005 TG45)",
      "nasa_jpl_url" : "http://ssd.jpl.nasa.gov/sbdb.cgi?sstr=2413563",
      "absolute_magnitude_h" : 17.6,
      "estimated_diameter" : {
        "kilometers" : {
          "estimated_diameter_min" : 0.8027031673,
          "estimated_diameter_max" : 1.7948988478
        },
        "meters" : {
          "estimated_diameter_min" : 802.7031672829,
          "estimated_diameter_max" : 1794.8988477988
        },
        "miles" : {
          "estimated_diameter_min" : 0.4987764698,
          "estimated_diameter_max" : 1.115298092
        },
        "feet" : {
          "estimated_diameter_min" : 2633.5406593483,
          "estimated_diameter_max" : 5888.7759358124
        }
      },
      "is_potentially_hazardous_asteroid" : false,
      "close_approach_data" : [ {
        "close_approach_date" : "2009-10-22",
        "epoch_date_close_approach" : 1256194800000,
        "relative_velocity" : {
          "kilometers_per_second" : "11.9460406956",
          "kilometers_per_hour" : "43005.7465042439",
          "miles_per_hour" : "26722.0984320398"
        },
        "miss_distance" : {
          "astronomical" : "0.4240381636",
          "lunar" : "164.9508514404",
          "kilometers" : "63435208",
          "miles" : "39416812"
        },
        "orbiting_body" : "Earth"
      } ],
      "orbital_data" : {
        "orbit_id" : "33",
        "orbit_determination_date" : "2017-07-01 06:49:29",
        "orbit_uncertainty" : "1",
        "minimum_orbit_intersection" : ".196997",
        "jupiter_tisserand_invariant" : "8.253",
        "epoch_osculation" : "2458000.5",
        "eccentricity" : ".3721849567894839",
        "semi_major_axis" : ".6813846501615601",
        "inclination" : "23.33750568269973",
        "ascending_node_longitude" : "273.448264404745",
        "orbital_period" : "205.4409173237366",
        "perihelion_distance" : ".4277835335841623",
        "perihelion_argument" : "230.4160336004342",
        "aphelion_distance" : ".9349857667389581",
        "perihelion_time" : "2458047.833954996372",
        "mean_anomaly" : "277.0553557651719",
        "mean_motion" : "1.752328624159651",
        "equinox" : "J2000"
      }
    }, {
      "links" : {
        "self" : "https://api.nasa.gov/neo/rest/v1/neo/3433064?api_key=t0TVs3DtDT2H8Oy2Zy8m2eVrNsAVKAexjcZXUckd"
      },
      "neo_reference_id" : "3433064",
      "name" : "(2008 UN3)",
      "nasa_jpl_url" : "http://ssd.jpl.nasa.gov/sbdb.cgi?sstr=3433064",
      "absolute_magnitude_h" : 22.0,
      "estimated_diameter" : {
        "kilometers" : {
          "estimated_diameter_min" : 0.1058168859,
          "estimated_diameter_max" : 0.2366137501
        },
        "meters" : {
          "estimated_diameter_min" : 105.8168859331,
          "estimated_diameter_max" : 236.6137501138
        },
        "miles" : {
          "estimated_diameter_min" : 0.0657515442,
          "estimated_diameter_max" : 0.1470249225
        },
        "feet" : {
          "estimated_diameter_min" : 347.1682720448,
          "estimated_diameter_max" : 776.2918559233
        }
      },
      "is_potentially_hazardous_asteroid" : false,
      "close_approach_data" : [ {
        "close_approach_date" : "2009-10-22",
        "epoch_date_close_approach" : 1256194800000,
        "relative_velocity" : {
          "kilometers_per_second" : "12.843060078",
          "kilometers_per_hour" : "46235.016280921",
          "miles_per_hour" : "28728.6410885534"
        },
        "miss_distance" : {
          "astronomical" : "0.3619446376",
          "lunar" : "140.7964630127",
          "kilometers" : "54146148",
          "miles" : "33644856"
        },
        "orbiting_body" : "Earth"
      } ],
      "orbital_data" : {
        "orbit_id" : "16",
        "orbit_determination_date" : "2017-04-06 09:02:28",
        "orbit_uncertainty" : "6",
        "minimum_orbit_intersection" : ".135246",
        "jupiter_tisserand_invariant" : "5.737",
        "epoch_osculation" : "2458000.5",
        "eccentricity" : ".2335114555892313",
        "semi_major_axis" : "1.052640640243138",
        "inclination" : "24.8366428337389",
        "ascending_node_longitude" : "41.61664761224088",
        "orbital_period" : "394.4742205146653",
        "perihelion_distance" : ".8068369921275822",
        "perihelion_argument" : "130.3483658454927",
        "aphelion_distance" : "1.298444288358693",
        "perihelion_time" : "2458041.120093361772",
        "mean_anomaly" : "322.929811760172",
        "mean_motion" : ".9126071648745835",
        "equinox" : "J2000"
      }
    }, {
      "links" : {
        "self" : "https://api.nasa.gov/neo/rest/v1/neo/3693428?api_key=t0TVs3DtDT2H8Oy2Zy8m2eVrNsAVKAexjcZXUckd"
      },
      "neo_reference_id" : "3693428",
      "name" : "(2014 UR)",
      "nasa_jpl_url" : "http://ssd.jpl.nasa.gov/sbdb.cgi?sstr=3693428",
      "absolute_magnitude_h" : 26.6,
      "estimated_diameter" : {
        "kilometers" : {
          "estimated_diameter_min" : 0.0127219879,
          "estimated_diameter_max" : 0.0284472297
        },
        "meters" : {
          "estimated_diameter_min" : 12.7219878539,
          "estimated_diameter_max" : 28.4472296503
        },
        "miles" : {
          "estimated_diameter_min" : 0.0079050743,
          "estimated_diameter_max" : 0.0176762835
        },
        "feet" : {
          "estimated_diameter_min" : 41.7388066307,
          "estimated_diameter_max" : 93.330808926
        }
      },
      "is_potentially_hazardous_asteroid" : false,
      "close_approach_data" : [ {
        "close_approach_date" : "2009-10-22",
        "epoch_date_close_approach" : 1256194800000,
        "relative_velocity" : {
          "kilometers_per_second" : "11.4071838496",
          "kilometers_per_hour" : "41065.8618584268",
          "miles_per_hour" : "25516.7295530875"
        },
        "miss_distance" : {
          "astronomical" : "0.3181048067",
          "lunar" : "123.742767334",
          "kilometers" : "47587800",
          "miles" : "29569690"
        },
        "orbiting_body" : "Earth"
      } ],
      "orbital_data" : {
        "orbit_id" : "25",
        "orbit_determination_date" : "2017-04-06 08:38:07",
        "orbit_uncertainty" : "0",
        "minimum_orbit_intersection" : ".0140622",
        "jupiter_tisserand_invariant" : "6.086",
        "epoch_osculation" : "2458000.5",
        "eccentricity" : ".01535206618006219",
        "semi_major_axis" : ".9967651784951668",
        "inclination" : "8.244025210231811",
        "ascending_node_longitude" : "24.32346279547496",
        "orbital_period" : "363.486021073438",
        "perihelion_distance" : ".9814627735089274",
        "perihelion_argument" : "207.0876322547035",
        "aphelion_distance" : "1.012067583481406",
        "perihelion_time" : "2457886.986928924960",
        "mean_anomaly" : "112.4244213473021",
        "mean_motion" : ".9904094769225426",
        "equinox" : "J2000"
      }
    } ]
  }
}